HAWK-A                  
1 43765U 18099H   26191.44827113  .00004564  00000+0  18328-3 0  9994
2 43765  97.3905 243.3829 0034224 200.7420 159.2431 15.24925601416642
HAWK-B                  
1 43794U 18099AN  26192.08898191  .00003765  00000+0  16070-3 0  9995
2 43794  97.3953 243.3798 0030984 216.7407 143.1706 15.23085137416673
HAWK-C                  
1 43799U 18099AT  26191.56820876  .00005828  00000+0  20836-3 0  9994
2 43799  97.3884 244.5291 0039834 200.2244 159.7420 15.28444337417484
HAWK-2C                 
1 47502U 21006CT  26192.07963072  .00004091  00000+0  12285-3 0  9995
2 47502  97.2272 235.9148 0008566 112.4872 247.7279 15.34955387303162
HAWK-2A                 
1 47505U 21006CW  26192.08189499  .00004155  00000+0  12470-3 0  9999
2 47505  97.2314 236.6088 0008071 115.6969 244.5109 15.34970478303161
HAWK-2B                 
1 47508U 21006CZ  26192.07576360  .00004560  00000+0  13605-3 0  9999
2 47508  97.2184 234.8967 0008652 114.0430 246.1720 15.35097668303165
HAWK-3B                 
1 48931U 21059BE  26191.00679719  .00035395  00000+0  27709-3 0  9992
2 48931  97.6649  29.9062 0004089 217.8107 142.2868 15.71525502281435
HAWK-3C                 
1 48948U 21059BX  26192.02526152  .00032175  00000+0  25127-3 0  9990
2 48948  97.6758  36.7502 0004230 212.6922 147.4079 15.71601025281598
HAWK-3A                 
1 48957U 21059CG  26192.02514870  .00032762  00000+0  25582-3 0  9991
2 48957  97.6704  33.9356 0004377 215.4578 144.6394 15.71599731281594
HAWK-5C                 
1 52754U 22057Y   26191.38716226  .00012612  00000+0  20969-3 0  9993
2 52754  97.6608 352.5680 0003254   5.7511 354.3777 15.52213217229944
HAWK-5B                 
1 52756U 22057AA  26191.38697119  .00011964  00000+0  19902-3 0  9998
2 52756  97.6625 350.9202 0003914 352.3757   7.7435 15.52210401229945
HAWK-5A                 
1 52757U 22057AB  26192.16036729  .00011427  00000+0  19005-3 0  9998
2 52757  97.6616 352.5753 0003725 354.1832   5.9376 15.52229194230067
HAWK-6B                 
1 55324U 23011A   26192.05118566  .00002759  00000+0  12257-3 0  9990
2 55324  40.4969 212.8596 0003524 219.2078 140.8477 15.23131238191482
HAWK-6C                 
1 55326U 23011C   26192.11612822  .00002785  00000+0  12363-3 0  9990
2 55326  40.4958 209.3159 0004051 209.3679 150.6903 15.23132905191509
HAWK-6A                 
1 55327U 23011D   26192.11616303  .00002574  00000+0  11487-3 0  9991
2 55327  40.4965 210.9429 0003576 207.0369 153.0254 15.23131663191504
HAWK-7A                 
1 56191U 23054P   26192.15233705  .00003452  00000+0  13057-3 0  9994
2 56191  97.2674  78.8807 0001840 352.8969   7.2244 15.27605934180686
